[{"OBJECT_NAME":"SATELIOT_2","OBJECT_ID":"2024-149BU","EPOCH":"2026-03-09T17:03:51.267456","MEAN_MOTION":14.95943652,"ECCENTRICITY":0.00018846,"INCLINATION":97.6894,"RA_OF_ASC_NODE":145.4857,"ARG_OF_PERICENTER":85.8882,"MEAN_ANOMALY":274.2555,"EPHEMERIS_TYPE":0,"CLASSIFICATION_TYPE":"U","NORAD_CAT_ID":60534,"ELEMENT_SET_NO":999,"REV_AT_EPOCH":8509,"BSTAR":0.00020754308,"MEAN_MOTION_DOT":2.267e-5,"MEAN_MOTION_DDOT":0},{"OBJECT_NAME":"STARLINK-35498","OBJECT_ID":"2025-293Q","EPOCH":"2026-03-09T10:46:11.636256","MEAN_MOTION":14.98325601,"ECCENTRICITY":0.00029353,"INCLINATION":70.0006,"RA_OF_ASC_NODE":94.9889,"ARG_OF_PERICENTER":261.5962,"MEAN_ANOMALY":98.4864,"EPHEMERIS_TYPE":0,"CLASSIFICATION_TYPE":"U","NORAD_CAT_ID":67017,"ELEMENT_SET_NO":999,"REV_AT_EPOCH":1485,"BSTAR":-0.0010476463,"MEAN_MOTION_DOT":-0.00012569,"MEAN_MOTION_DDOT":0}]
