SATELIOT_2              
1 60534U 24149BU  26068.71101004  .00002267  00000+0  20754-3 0  9991
2 60534  97.6894 145.4857 0001885  85.8882 274.2555 14.95943652 85098
STARLINK-35498          
1 67017U 25293Q   26068.44874579 -.00012569  00000+0 -10476-2 0  9996
2 67017  70.0006  94.9889 0002935 261.5962  98.4864 14.98325601 14859
